start=new Date('2023-06-05T00:00:00.000Z').valueOf();
sats=[{"APOAPSIS":"547.770","TLE_LINE1":"1 48323U 21036AZ  23155.76985289  .00004487  00000-0  31993-3 0  9993","TIME_SYSTEM":"UTC","MEAN_MOTION_DOT":"0.00004487","RCS_SIZE":"LARGE","EPHEMERIS_TYPE":"0","MEAN_MOTION_DDOT":"0.0000000000000","LAUNCH_DATE":"2021-04-29","BSTAR":"0.00031993000000","ECCENTRICITY":"0.00007920","OBJECT_ID":"2021-036AZ","MEAN_ELEMENT_THEORY":"SGP4","CLASSIFICATION_TYPE":"U","MEAN_ANOMALY":"251.6296","ARG_OF_PERICENTER":"108.4779","SEMIMAJOR_AXIS":"6925.356","EPOCH":"2023-06-04T18:28:35.289696","MEAN_MOTION":"15.06397534","CENTER_NAME":"EARTH","SITE":"AFETR","REV_AT_EPOCH":"11596","NORAD_CAT_ID":"48323","PERIOD":"95.592","OBJECT_TYPE":"PAYLOAD","COUNTRY_CODE":"US","ELEMENT_SET_NO":"999","PERIAPSIS":"546.673","OBJECT_NAME":"STARLINK-2515","FILE":"3925173","GP_ID":"233216092","TLE_LINE2":"2 48323  53.0535 310.8342 0000792 108.4779 251.6296 15.06397534115964","RA_OF_ASC_NODE":"310.8342","REF_FRAME":"TEME","DECAY_DATE":null,"INCLINATION":"53.0535"},{"EPHEMERIS_TYPE":"0","MEAN_MOTION_DOT":"0.00006625","RCS_SIZE":"LARGE","APOAPSIS":"547.734","TIME_SYSTEM":"UTC","TLE_LINE1":"1 48324U 21036BA  23155.83156758  .00006625  00000-0  46324-3 0  9993","MEAN_ELEMENT_THEORY":"SGP4","OBJECT_ID":"2021-036BA","SEMIMAJOR_AXIS":"6925.361","EPOCH":"2023-06-04T19:57:27.438912","MEAN_MOTION":"15.06396052","CLASSIFICATION_TYPE":"U","MEAN_ANOMALY":"242.5357","ARG_OF_PERICENTER":"117.5706","MEAN_MOTION_DDOT":"0.0000000000000","LAUNCH_DATE":"2021-04-29","ECCENTRICITY":"0.00007340","BSTAR":"0.00046324000000","NORAD_CAT_ID":"48324","REV_AT_EPOCH":"11596","PERIOD":"95.592","SITE":"AFETR","CENTER_NAME":"EARTH","TLE_LINE2":"2 48324  53.0540 310.5431 0000734 117.5706 242.5357 15.06396052115965","GP_ID":"233216342","INCLINATION":"53.0540","REF_FRAME":"TEME","RA_OF_ASC_NODE":"310.5431","DECAY_DATE":null,"ELEMENT_SET_NO":"999","PERIAPSIS":"546.717","COUNTRY_CODE":"US","OBJECT_TYPE":"PAYLOAD","FILE":"3925173","OBJECT_NAME":"STARLINK-2527"},{"CENTER_NAME":"EARTH","SITE":"AFETR","PERIOD":"95.593","REV_AT_EPOCH":"11597","NORAD_CAT_ID":"48325","OBJECT_NAME":"STARLINK-2495","FILE":"3925173","OBJECT_TYPE":"PAYLOAD","COUNTRY_CODE":"US","PERIAPSIS":"546.543","ELEMENT_SET_NO":"999","DECAY_DATE":null,"REF_FRAME":"TEME","RA_OF_ASC_NODE":"310.5661","INCLINATION":"53.0538","GP_ID":"233217094","TLE_LINE2":"2 48325  53.0538 310.5661 0000996 114.2336 245.8757 15.06393806115976","TIME_SYSTEM":"UTC","TLE_LINE1":"1 48325U 21036BB  23155.82882889  .00005554  00000-0  39150-3 0  9993","APOAPSIS":"547.922","RCS_SIZE":"LARGE","MEAN_MOTION_DOT":"0.00005554","EPHEMERIS_TYPE":"0","ECCENTRICITY":"0.00009960","BSTAR":"0.00039150000000","LAUNCH_DATE":"2021-04-29","MEAN_MOTION_DDOT":"0.0000000000000","ARG_OF_PERICENTER":"114.2336","CLASSIFICATION_TYPE":"U","MEAN_ANOMALY":"245.8757","MEAN_MOTION":"15.06393806","SEMIMAJOR_AXIS":"6925.368","EPOCH":"2023-06-04T19:53:30.816096","OBJECT_ID":"2021-036BB","MEAN_ELEMENT_THEORY":"SGP4"},{"MEAN_MOTION_DDOT":"0.0000000000000","LAUNCH_DATE":"2021-04-29","ECCENTRICITY":"0.00011600","BSTAR":"0.00024855000000","OBJECT_ID":"2021-036BC","MEAN_ELEMENT_THEORY":"SGP4","CLASSIFICATION_TYPE":"U","MEAN_ANOMALY":"264.8873","ARG_OF_PERICENTER":"95.2248","EPOCH":"2023-06-04T16:37:07.553856","SEMIMAJOR_AXIS":"6925.382","MEAN_MOTION":"15.06389014","APOAPSIS":"548.051","TIME_SYSTEM":"UTC","TLE_LINE1":"1 48326U 21036BC  23155.69244854  .00003422  00000-0  24855-3 0  9991","MEAN_MOTION_DOT":"0.00003422","RCS_SIZE":"LARGE","EPHEMERIS_TYPE":"0","COUNTRY_CODE":"US","OBJECT_TYPE":"PAYLOAD","ELEMENT_SET_NO":"999","PERIAPSIS":"546.444","OBJECT_NAME":"STARLINK-2498","FILE":"3925173","GP_ID":"233216844","TLE_LINE2":"2 48326  53.0542 311.1816 0001160  95.2248 264.8873 15.06389014115959","REF_FRAME":"TEME","RA_OF_ASC_NODE":"311.1816","DECAY_DATE":null,"INCLINATION":"53.0542","CENTER_NAME":"EARTH","SITE":"AFETR","REV_AT_EPOCH":"11595","NORAD_CAT_ID":"48326","PERIOD":"95.593"},{"TLE_LINE1":"1 48327U 21036BD  23155.75510826  .00011578  00000-0  79491-3 0  9991","TIME_SYSTEM":"UTC","APOAPSIS":"547.794","MEAN_MOTION_DOT":"0.00011578","RCS_SIZE":"LARGE","EPHEMERIS_TYPE":"0","BSTAR":"0.00079491000000","ECCENTRICITY":"0.00008290","MEAN_MOTION_DDOT":"0.0000000000000","LAUNCH_DATE":"2021-04-29","CLASSIFICATION_TYPE":"U","MEAN_ANOMALY":"263.9493","ARG_OF_PERICENTER":"96.1590","EPOCH":"2023-06-04T18:07:21.353664","SEMIMAJOR_AXIS":"6925.354","MEAN_MOTION":"15.06398078","OBJECT_ID":"2021-036BD","MEAN_ELEMENT_THEORY":"SGP4","CENTER_NAME":"EARTH","SITE":"AFETR","PERIOD":"95.592","REV_AT_EPOCH":"11596","NORAD_CAT_ID":"48327","OBJECT_NAME":"STARLINK-2502","FILE":"3925173","COUNTRY_CODE":"US","OBJECT_TYPE":"PAYLOAD","ELEMENT_SET_NO":"999","PERIAPSIS":"546.645","REF_FRAME":"TEME","RA_OF_ASC_NODE":"310.8992","DECAY_DATE":null,"INCLINATION":"53.0535","GP_ID":"233215592","TLE_LINE2":"2 48327  53.0535 310.8992 0000829  96.1590 263.9493 15.06398078115963"},{"CENTER_NAME":"EARTH","SITE":"AFETR","REV_AT_EPOCH":"11597","NORAD_CAT_ID":"48328","PERIOD":"95.593","OBJECT_TYPE":"PAYLOAD","COUNTRY_CODE":"US","PERIAPSIS":"546.627","ELEMENT_SET_NO":"999","OBJECT_NAME":"STARLINK-2504","FILE":"3925173","GP_ID":"233215842","TLE_LINE2":"2 48328  53.0535 310.6175 0000900  79.7930 280.3160 15.06388171115978","DECAY_DATE":null,"REF_FRAME":"TEME","RA_OF_ASC_NODE":"310.6175","INCLINATION":"53.0535","APOAPSIS":"547.873","TIME_SYSTEM":"UTC","TLE_LINE1":"1 48328U 21036BE  23155.81682385  .00021339  00000-0  14476-2 0  9996","RCS_SIZE":"LARGE","MEAN_MOTION_DOT":"0.00021339","EPHEMERIS_TYPE":"0","LAUNCH_DATE":"2021-04-29","MEAN_MOTION_DDOT":"0.0000000000000","ECCENTRICITY":"0.00009000","BSTAR":"0.00144760000000","OBJECT_ID":"2021-036BE","MEAN_ELEMENT_THEORY":"SGP4","ARG_OF_PERICENTER":"79.7930","CLASSIFICATION_TYPE":"U","MEAN_ANOMALY":"280.3160","MEAN_MOTION":"15.06388171","EPOCH":"2023-06-04T19:36:13.580640","SEMIMAJOR_AXIS":"6925.385"},{"SITE":"AFETR","CENTER_NAME":"EARTH","PERIOD":"95.593","NORAD_CAT_ID":"48329","REV_AT_EPOCH":"11597","FILE":"3925173","OBJECT_NAME":"STARLINK-2510","PERIAPSIS":"546.637","ELEMENT_SET_NO":"999","COUNTRY_CODE":"US","OBJECT_TYPE":"PAYLOAD","INCLINATION":"53.0551","DECAY_DATE":null,"RA_OF_ASC_NODE":"310.6383","REF_FRAME":"TEME","TLE_LINE2":"2 48329  53.0551 310.6383 0000884  97.1744 262.9345 15.06388237115970","GP_ID":"233216594","TLE_LINE1":"1 48329U 21036BF  23155.81408330  .00000842  00000-0  75450-4 0  9990","TIME_SYSTEM":"UTC","APOAPSIS":"547.862","EPHEMERIS_TYPE":"0","RCS_SIZE":"LARGE","MEAN_MOTION_DOT":"0.00000842","BSTAR":"0.00007545000000","ECCENTRICITY":"0.00008840","LAUNCH_DATE":"2021-04-29","MEAN_MOTION_DDOT":"0.0000000000000","MEAN_MOTION":"15.06388237","EPOCH":"2023-06-04T19:32:16.797120","SEMIMAJOR_AXIS":"6925.385","ARG_OF_PERICENTER":"97.1744","CLASSIFICATION_TYPE":"U","MEAN_ANOMALY":"262.9345","MEAN_ELEMENT_THEORY":"SGP4","OBJECT_ID":"2021-036BF"},{"CENTER_NAME":"EARTH","SITE":"AFETR","REV_AT_EPOCH":"11596","NORAD_CAT_ID":"48330","PERIOD":"95.593","OBJECT_TYPE":"PAYLOAD","COUNTRY_CODE":"US","PERIAPSIS":"546.871","ELEMENT_SET_NO":"999","OBJECT_NAME":"STARLINK-2501","FILE":"3925173","GP_ID":"233217345","TLE_LINE2":"2 48330  53.0535 310.9493 0000524  86.5527 273.5522 15.06393227115960","DECAY_DATE":null,"REF_FRAME":"TEME","RA_OF_ASC_NODE":"310.9493","INCLINATION":"53.0535","APOAPSIS":"547.597","TLE_LINE1":"1 48330U 21036BG  23155.74404596  .00005966  00000-0  41913-3 0  9992","TIME_SYSTEM":"UTC","RCS_SIZE":"LARGE","MEAN_MOTION_DOT":"0.00005966","EPHEMERIS_TYPE":"0","LAUNCH_DATE":"2021-04-29","MEAN_MOTION_DDOT":"0.0000000000000","BSTAR":"0.00041913000000","ECCENTRICITY":"0.00005240","OBJECT_ID":"2021-036BG","MEAN_ELEMENT_THEORY":"SGP4","ARG_OF_PERICENTER":"86.5527","CLASSIFICATION_TYPE":"U","MEAN_ANOMALY":"273.5522","MEAN_MOTION":"15.06393227","EPOCH":"2023-06-04T17:51:25.570944","SEMIMAJOR_AXIS":"6925.369"},{"NORAD_CAT_ID":"48331","REV_AT_EPOCH":"11597","PERIOD":"95.592","SITE":"AFETR","CENTER_NAME":"EARTH","TLE_LINE2":"2 48331  53.0539 310.6678 0000796  95.4995 264.6085 15.06394510115978","GP_ID":"233216093","INCLINATION":"53.0539","DECAY_DATE":null,"REF_FRAME":"TEME","RA_OF_ASC_NODE":"310.6678","PERIAPSIS":"546.679","ELEMENT_SET_NO":"999","COUNTRY_CODE":"US","OBJECT_TYPE":"PAYLOAD","FILE":"3925173","OBJECT_NAME":"STARLINK-2514","EPHEMERIS_TYPE":"0","RCS_SIZE":"LARGE","MEAN_MOTION_DOT":"0.00004927","APOAPSIS":"547.782","TLE_LINE1":"1 48331U 21036BH  23155.80671190  .00004927  00000-0  34946-3 0  9990","TIME_SYSTEM":"UTC","MEAN_ELEMENT_THEORY":"SGP4","OBJECT_ID":"2021-036BH","MEAN_MOTION":"15.06394510","SEMIMAJOR_AXIS":"6925.365","EPOCH":"2023-06-04T19:21:39.908160","ARG_OF_PERICENTER":"95.4995","CLASSIFICATION_TYPE":"U","MEAN_ANOMALY":"264.6085","LAUNCH_DATE":"2021-04-29","MEAN_MOTION_DDOT":"0.0000000000000","ECCENTRICITY":"0.00007960","BSTAR":"0.00034946000000"},{"SEMIMAJOR_AXIS":"6925.366","EPOCH":"2023-06-04T20:55:50.729952","MEAN_MOTION":"15.06394454","CLASSIFICATION_TYPE":"U","MEAN_ANOMALY":"285.8320","ARG_OF_PERICENTER":"74.2721","MEAN_ELEMENT_THEORY":"SGP4","OBJECT_ID":"2021-036BJ","BSTAR":"0.00150850000000","ECCENTRICITY":"0.00004690","MEAN_MOTION_DDOT":"0.0000000000000","LAUNCH_DATE":"2021-04-29","EPHEMERIS_TYPE":"0","MEAN_MOTION_DOT":"0.00022256","RCS_SIZE":"LARGE","TIME_SYSTEM":"UTC","TLE_LINE1":"1 48332U 21036BJ  23155.87211493  .00022256  00000-0  15085-2 0  9991","APOAPSIS":"547.555","INCLINATION":"53.0538","RA_OF_ASC_NODE":"310.3789","REF_FRAME":"TEME","DECAY_DATE":null,"TLE_LINE2":"2 48332  53.0538 310.3789 0000469  74.2721 285.8320 15.06394454115982","GP_ID":"233216343","FILE":"3925173","OBJECT_NAME":"STARLINK-2511","ELEMENT_SET_NO":"999","PERIAPSIS":"546.906","OBJECT_TYPE":"PAYLOAD","COUNTRY_CODE":"US","PERIOD":"95.592","NORAD_CAT_ID":"48332","REV_AT_EPOCH":"11598","SITE":"AFETR","CENTER_NAME":"EARTH"}];
